{
    "links": {
        "self": "http://www.neowsapp.com/rest/v1/neo/3780665?api_key=iIulBulltgU6a56xZRHN4H3l9WmuAYTsLGpBGhQ2"
    },
    "id": "3780665",
    "neo_reference_id": "3780665",
    "name": "(2017 OT68)",
    "designation": "2017 OT68",
    "nasa_jpl_url": "http://ssd.jpl.nasa.gov/sbdb.cgi?sstr=3780665",
    "absolute_magnitude_h": 20.9,
    "estimated_diameter": {
        "kilometers": {
            "estimated_diameter_min": 0.1756123185,
            "estimated_diameter_max": 0.3926810818
        },
        "meters": {
            "estimated_diameter_min": 175.6123184804,
            "estimated_diameter_max": 392.6810818086
        },
        "miles": {
            "estimated_diameter_min": 0.1091204019,
            "estimated_diameter_max": 0.2440006365
        },
        "feet": {
            "estimated_diameter_min": 576.1559189633,
            "estimated_diameter_max": 1288.3238004408
        }
    },
    "is_potentially_hazardous_asteroid": false,
    "close_approach_data": [
        {
            "close_approach_date": "2007-07-25",
            "close_approach_date_full": "2007-Jul-25 02:09",
            "epoch_date_close_approach": 1185329340000,
            "relative_velocity": {
                "kilometers_per_second": "5.2797327353",
                "kilometers_per_hour": "19007.0378470097",
                "miles_per_hour": "11810.2341555489"
            },
            "miss_distance": {
                "astronomical": "0.2758766662",
                "lunar": "107.3160231518",
                "kilometers": "41270561.646220994",
                "miles": "25644337.8632139572"
            },
            "orbiting_body": "Earth"
        },
        {
            "close_approach_date": "2017-08-12",
            "close_approach_date_full": "2017-Aug-12 01:39",
            "epoch_date_close_approach": 1502501940000,
            "relative_velocity": {
                "kilometers_per_second": "5.1165045696",
                "kilometers_per_hour": "18419.416450556",
                "miles_per_hour": "11445.1090717358"
            },
            "miss_distance": {
                "astronomical": "0.4270882928",
                "lunar": "166.1373458992",
                "kilometers": "63891498.904816336",
                "miles": "39700336.4903879968"
            },
            "orbiting_body": "Earth"
        },
        {
            "close_approach_date": "2037-06-15",
            "close_approach_date_full": "2037-Jun-15 13:12",
            "epoch_date_close_approach": 2128684320000,
            "relative_velocity": {
                "kilometers_per_second": "6.9472085859",
                "kilometers_per_hour": "25009.9509093315",
                "miles_per_hour": "15540.2108858566"
            },
            "miss_distance": {
                "astronomical": "0.0865095023",
                "lunar": "33.6521963947",
                "kilometers": "12941637.278840101",
                "miles": "8041560.5129553538"
            },
            "orbiting_body": "Mars"
        }
    ],
    "orbital_data": {
        "orbit_id": "4",
        "orbit_determination_date": "2017-11-19 06:19:59",
        "first_observation_date": "2017-07-27",
        "last_observation_date": "2017-11-17",
        "data_arc_in_days": 113,
        "observations_used": 19,
        "orbit_uncertainty": "5",
        "minimum_orbit_intersection": ".277293",
        "jupiter_tisserand_invariant": "3.513",
        "epoch_osculation": "2459000.5",
        "eccentricity": ".418475317379882",
        "semi_major_axis": "2.222504844871657",
        "inclination": "9.321819013315",
        "ascending_node_longitude": "120.8784699685317",
        "orbital_period": "1210.214916215195",
        "perihelion_distance": "1.292441424535665",
        "perihelion_argument": "183.1086004317304",
        "aphelion_distance": "3.152568265207649",
        "perihelion_time": "2459151.854859204186",
        "mean_anomaly": "314.9767990929157",
        "mean_motion": ".2974678259014172",
        "equinox": "J2000",
        "orbit_class": {
            "orbit_class_type": "AMO",
            "orbit_class_description": "Near-Earth asteroid orbits similar to that of 1221 Amor",
            "orbit_class_range": "1.017 AU < q (perihelion) < 1.3 AU"
        }
    },
    "is_sentry_object": false
}